#cP2009  9 23  0  0  0.00000000      96 ORBIT IGS05 HLM  IGS
## 1550 259200.00000000   900.00000000 55097 0.0000000000000
+   16   R02R03R07R08R10R11R13R14R15R17R18R19R20R21R23R24  0
+          0  0  0  0  0  0  0  0  0  0  0  0  0  0  0  0  0
+          0  0  0  0  0  0  0  0  0  0  0  0  0  0  0  0  0
+          0  0  0  0  0  0  0  0  0  0  0  0  0  0  0  0  0
+          0  0  0  0  0  0  0  0  0  0  0  0  0  0  0  0  0
++         4  4  3  3  3  4  3  4  3  3  4  3  3  3  4  5  0
++         0  0  0  0  0  0  0  0  0  0  0  0  0  0  0  0  0
++         0  0  0  0  0  0  0  0  0  0  0  0  0  0  0  0  0
++         0  0  0  0  0  0  0  0  0  0  0  0  0  0  0  0  0
++         0  0  0  0  0  0  0  0  0  0  0  0  0  0  0  0  0
%c R  cc GPS ccc cccc cccc cccc cccc ccccc ccccc ccccc ccccc
%c cc cc ccc ccc cccc cccc cccc cccc ccccc ccccc ccccc ccccc
%f  1.2500000  1.025000000  0.00000000000  0.000000000000000
%f  0.0000000  0.000000000  0.00000000000  0.000000000000000
%i    0    0    0    0      0      0      0      0         0
%i    0    0    0    0      0      0      0      0         0
/* FINAL ORBIT COMBINATION FROM WEIGHTED AVERAGE OF:        
/* bkg brx cod esx iac mcc                                  
/*                                                          
/* PCV:IGS05_1545 OL/AL:FES2004  NONE     Y  ORB:CMB CLK:CMB
*  2009  9 23 13 30  0.00000000
PR02  10212.652514  -4134.898354 -22995.241355    -97.475087 13  9  8           
PR03   2446.531127 -20207.155768 -15357.104937    -75.482709  9 10 11           
PR07  -1885.312383  20116.490246  15584.178397     49.421665 10  8  8           
PR08   6721.452120  24583.174575  -1134.266076    -87.031615 11  9 11           
PR10  -9214.440970   8149.053066 -22381.695706   -132.270609 10  8  9           
PR11  10164.770515  12333.527228 -19913.055681   -107.243982 14 13 12           
PR13  22474.995873    286.918459  12019.964327   -247.570884 10 12 11           
PR14   9122.993547  -8165.447187  22343.953194    -34.760457 14 11  5           
PR15 -10309.271925 -12098.312322  19915.323963    107.740658  7  6  9           
PR17  15014.494008 -19449.952123  -7012.515720   -272.882496 10  6 10           
PR18   1300.260965 -14980.708422 -20545.079924     -8.778845 14 10 10           
PR19 -12722.784075  -1935.933114 -22025.598916   -106.064801  7 10  5           
PR20 -19648.590290  12541.616504 -10431.382622    -68.526109 10 10 11           
PR21 -14852.620745  19472.464055   6943.009377   -163.468604  7  6  9           
PR23  13189.668283   1374.912626  21781.792160    -15.509640 13 11  7           
PR24  19694.468073 -12883.224458   9746.934062   -195.655492 13 15 16           
*  2009  9 23 13 45  0.00000000
PR02  10994.368921  -1406.235760 -22963.087997    -97.478106 13  9  8           
PR03   2907.993462 -18221.809376 -17596.727479    -75.485841 10 10 11           
PR07  -2484.462691  18148.300178  17760.645134     49.425841 10  8  7           
PR08   6846.934528  24488.140325   2076.334834    -87.030570 11  9 11           
PR10 -11854.091387   7620.014510 -21306.573616   -132.269565  9  8  9           
PR11   7706.932952  11671.800429 -21356.410988   -107.245845 14 14 12           
PR13  23785.847063    440.321028   9154.942259   -247.571929  9 13 11           
PR14  11769.803542  -7628.120402  21264.610279    -34.758242 13 12  7           
PR15  -7837.451245 -11452.860221  21377.911917    107.741590  8  7  9           
PR17  15357.454486 -20050.275772  -3889.916379   -272.882496 10  8 10           
PR18   2913.609854 -16816.059372 -18884.508243     -8.779889 14  9 11           
PR19 -10793.822210  -3917.130820 -22779.345704   -106.065845  7 10  6           
PR20 -18542.068568  11583.223276 -13192.300364    -68.526109  9 10 10           
PR21 -15200.808668  20059.107022   3808.592043   -163.470692  7  6  9           
PR23  11264.687976   3328.648006  22637.543628    -15.509640 13 11  8           
PR24  18642.131827 -11982.675573  12567.990381   -195.654448 12 15 15           
*  2009  9 23 14  0  0.00000000
PR02  11961.876107   1228.788523 -22484.483204    -97.479743 13 10  9           
PR03   3599.497925 -16035.824006 -19494.156915    -75.488297 10 11 11           
PR07  -3316.596598  15999.562090  19592.396104     49.429115 10  8  6           
PR08   6831.408233  24015.089911   5246.616538    -87.029752 11 10 11           
PR10 -14370.043918   7315.064476 -19819.450346   -132.268746  9  8  9           
PR11   5056.261695  11169.621473 -22386.017511   -107.245845 14 14 12           
PR13  24745.331520    437.822130   6111.705710   -247.572747  9 13 11           
PR14  14293.365531  -7314.489465  19770.616243    -34.756605 13 12  9           
PR15  -5172.477858 -10971.037137  22424.323418    107.741590  8  8  8           
PR17  15408.558430 -20374.812454   -692.149116   -272.882496 10  9  9           
PR18   4245.368188 -18588.192934 -16854.816722     -8.780708 14  9 11           
PR19  -8974.171351  -6085.399199 -23090.810847   -106.066664  7  9  7           
PR20 -17303.388490  10295.934401 -15697.749520    -68.526109  9 10 10           
PR21 -15258.110356  20366.038538    599.719247   -163.472330  7  6  8           
PR23   9438.709595   5478.472149  23053.443981    -15.509640 13 11  9           
PR24  17446.141170 -10751.980640  15144.018218   -195.653629 12 16 15           
*  2009  9 23 14 15  0.00000000
PR02  13084.087778   3707.834295 -21568.716237    -97.481831 13 10  9           
PR03   4532.713312 -13713.375159 -21012.507839    -75.490498 10 11 10           
PR07  -4388.664974  13733.798834  21043.789442     49.432360 10  7  7           
PR08   6627.338051  23192.916682   8315.032487    -87.027776 10 10 10           
PR10 -16696.155987   7218.268230 -17949.295646   -132.266771  8  8  9           
PR11   2275.573424  10855.666353 -22981.680939   -107.246776 13 14 12           
PR13  25321.655144    327.737243   2949.517733   -247.575654  8 13 12           
PR14  16626.751011  -7208.649407  17890.888940    -34.758242 13 12 10           
PR15  -2378.315188 -10681.532251  23034.562387    107.743452  8  8  8           
PR17  15205.986628 -20382.856158   2518.991685   -272.882496 10  9  9           
PR18   5287.717261 -20232.279150 -14495.458504     -8.782683 13  8 12           
PR19  -7312.659655  -8390.337540 -22953.956349   -106.068639  7  9  8           
PR20 -15993.953508   8685.764002 -17899.101960    -68.525177  9 10  9           
PR21 -15063.074683  20352.870600  -2620.877937   -163.473486  7  6  9           
PR23   7762.024812   7775.523466  23021.555016    -15.508708 13 11 10           
PR24  16168.042365  -9195.162501  17424.977570   -195.652585 12 16 14           
*  2009  9 23 14 30  0.00000000
PR02  14319.845633   5975.672189 -20233.581751    -97.483469 13 10 10           
PR03   5707.024977 -11321.436831 -22122.275806    -75.492954 10 11 10           
PR07  -5695.501820  11416.438458  22086.546478     49.435634 10  7  8           
PR08   6194.566344  22061.559188  11222.032563    -87.026958 10 11 10           
PR10 -18772.009423   7302.221937 -15732.410121   -132.265952  6  8  9           
PR11   -567.275194  10747.178131 -23131.579594   -107.246776 13 14 12           
PR13  25495.550201    163.371328   -270.064981   -247.576472  8 12 12           
PR14  18708.753567  -7283.124493  15661.936938    -34.756605 12 12 10           
PR15    476.198672 -10601.379136  23197.152369    107.743452  9  8  8           
PR17  14796.382946 -20044.002030   5681.458530   -272.882496 10  9  8           
PR18   6045.648898 -21685.268012 -11852.429894     -8.783502 13  7 12           
PR19  -5848.575658 -10773.683784 -22371.440748   -106.069458  7  9  8           
PR20 -14674.597559   6771.645720 -19753.569757    -68.525177  9 10  8           
PR21 -14662.758555  19989.784427  -5790.246949   -163.475124  8  6  9           
PR23   6275.678736  10162.733578  22542.634625    -15.508708 13 10 10           
PR24  14869.235301  -7329.261160  19366.657123   -195.651766 11 16 13           
*  2009  9 23 14 45  0.00000000
PR02  15619.614248   7986.235977 -18505.034651    -97.485557 13 11 10           
PR03   7109.351531  -8927.135561 -22801.910124    -75.496086 10 12  9           
PR07  -7219.817545   9112.234240  22700.306561     49.438879 11  7  9           
PR08   5502.258165  20670.294098  13911.217113    -87.025914  9 11 10           
PR10 -20545.218440   7529.374006 -13211.723434   -132.264908  5  8 10           
PR11  -3401.954702  10849.208604 -22832.512570   -107.248625 13 13 12           
PR13  25261.052895      0.510427  -3484.399831   -247.578448  7 12 12           
PR14  20486.277070  -7500.191798  13127.152017    -34.753585 12 12 11           
PR15   3319.981892 -10735.235839  22909.329422    107.745301  9  9  8           
PR17  14232.705752 -19339.575315   8734.132849   -272.882496 10  9  8           
PR18   6536.500403 -22888.530211  -8977.364672     -8.785477 13  7 12           
PR19  -4610.188553 -13171.545414 -21354.567626   -106.070502  7  8  9           
PR20 -13403.008584   4584.915628 -21225.037600    -68.525177  9 10  7           
PR21 -14110.521148  19258.955006  -8846.469284   -163.477212  8  7  9           
PR23   5009.916202  12577.008847  21626.111414    -15.508708 13 10 11           
PR24  13608.348829  -5183.862471  20931.524723   -195.649791 11 17 12           
EOF
